CALSPHERE 1             
1 00900U 64063C   17051.51065766  .00000282  00000-0  29488-3 0  9994
2 00900  90.1443   9.7042 0028605 100.3365 260.1025 13.72864328604003
CALSPHERE 2             
1 00902U 64063E   17051.38046483  .00000037  00000-0  41966-4 0  9990
2 00902  90.1499  12.0239 0019307  33.0563  88.3692 13.52644024396557
LCS 1                   
1 01361U 65034C   17052.18629752  .00000012  00000-0  53745-3 0  9994
2 01361  32.1448 336.8652 0007329  76.9206 283.2109  9.89290776873223
TEMPSAT 1               
1 01512U 65065E   17051.55754799  .00000027  00000-0  33065-4 0  9996
2 01512  89.8142 244.2880 0071836  85.6804 334.5461 13.33400347506451
CALSPHERE 4(A)          
1 01520U 65065H   17051.22856583  .00000041  00000-0  63294-4 0  9996
2 01520  90.0881 121.7682 0068161 344.5460  77.0018 13.35724617508646
OPS 5712 (P/L 160)      
1 02826U 67053A   17052.19116151  .00000638  00000-0  18902-3 0  9999
2 02826  69.9291 153.1292 0008487 219.0534 140.9987 14.47740535571898
OPS 5712 (P/L 153)      
1 02874U 67053H   17051.55806918 -.00000005  00000-0  35039-4 0  9998
2 02874  69.9726 206.2094 0010070 285.8702  74.1294 13.96283095532086
SURCAL 150B             
1 02909U 67053J   17051.84223529  .00000946  00000-0  21108-3 0  9994
2 02909  69.9471 231.8925 0006414 273.8028  86.2377 14.59931205580277
RIGIDSPHERE 2 (LCS 4)   
1 05398U 71067E   17051.17802327  .00000178  00000-0  56978-4 0  9995
2 05398  87.6275 198.5920 0062023 313.1613  46.4409 14.33541984386025
